168P/Hergenrother,e,21.6232,355.4506,15.0303,3.582366,0.1453614,0.62121626,184.0038,01/23.0/2023,2000,g 15.5,4.0
# From MPEC 2022-WQ9
169P/NEAT,e,11.2986,176.1012,218.0525,2.602483,0.2347591,0.76834465,46.3212,01/23.0/2023,2000,g 16.0,2.0
# From MPEC 2023-A50
170P/Christensen,e,10.1207,142.9199,225.4184,4.207400,0.1142045,0.30509303,350.0915,01/23.0/2023,2000,g 12.0,4.0
# From MPC102102
171P/Spahr,e,21.9459,101.6880,347.0451,3.553830,0.1471157,0.50213787,216.3545,01/23.0/2023,2000,g 13.5,4.0
# From MPEC 2023-B57
172P/Yeung,e,11.2253,30.8752,209.2563,4.217078,0.1138116,0.20456868,244.3155,01/23.0/2023,2000,g 13.0,4.0
# From MPEC 2022-X67
173P/Mueller,e,16.4893,100.3827,29.1464,5.709437,0.0722460,0.26146746,29.0882,01/23.0/2023,2000,g  7.5,4.0
# From MPC 92985
174P/Echeclus,e,4.3439,173.1877,163.3962,10.74320,0.0279900,0.45698754,79.1655,01/23.0/2023,2000,g  9.4,2.0
# From MPC114608
175P/Hergenrother,e,4.9299,111.7826,74.1457,3.637443,0.1420724,0.39198933,174.1288,01/23.0/2023,2000,g 14.0,4.0
# From MPC 89015
176P/LINEAR,e,0.2315,345.9089,34.3351,3.197816,0.1723550,0.19302686,10.8770,01/23.0/2023,2000,g 15.1,2.0
# From MPEC 2020-L06
177P/Barnard,e,31.1170,271.9221,60.5954,24.48992,0.0081325,0.95517159,48.6540,01/23.0/2023,2000,g 15.0,4.0
# From MPEC 2021-F20
178P/Hug-Bell,e,11.0873,102.8353,297.8462,3.632623,0.1423553,0.48247301,130.9532,01/23.0/2023,2000,g 14.6,4.0
# From MPEC 2023-B57
179P/Jedicke,e,19.8978,115.5140,296.9823,5.932526,0.0682095,0.30585935,16.1810,01/23.0/2023,2000,g  2.5,8.0
# From MPEC 2023-B57
180P/NEAT,e,16.8604,84.5692,94.6779,3.866824,0.1296202,0.35327414,337.9329,01/23.0/2023,2000,g 11.0,4.0
# From MPC 89012
181P/Shoemaker-Levy,e,17.4861,35.3962,336.2659,3.875235,0.1291984,0.70058412,48.9968,01/23.0/2023,2000,g 11.5,4.0
# From MPEC 2014-J10
182P/LONEOS,e,16.2283,72.4569,54.2252,2.950350,0.1944884,0.66324357,49.7415,01/23.0/2023,2000,g 18.0,4.0
# From MPEC 2023-A50
183P/Korlevic-Juric,e,18.9947,3.9855,167.7780,4.646667,0.0983992,0.11109496,189.7477,01/23.0/2023,2000,g 12.5,2.0
# From MPEC 2020-W26
184P/Lovas,e,4.5740,173.2404,186.5479,3.797262,0.1331982,0.55095861,109.0413,01/23.0/2023,2000,g 13.5,4.0
# From MPC109593
185P/Petriew,e,14.0146,214.1148,181.8900,3.097874,0.1807625,0.69969141,329.1062,01/23.0/2023,2000,g 15.0,4.0
# From MPEC 2022-X67
186P/Garradd,e,28.6681,326.3628,269.7087,4.856414,0.0920938,0.12394221,136.2998,01/23.0/2023,2000,g  7.5,4.0
# From MPEC 2020-SI8
187P/LINEAR,e,13.6367,109.8882,131.3600,4.565121,0.1010475,0.15238654,173.6192,01/23.0/2023,2000,g  9.0,4.0
# From MPEC 2022-K19
188P/LINEAR-Mueller,e,10.5258,358.9642,26.6342,4.370662,0.1078657,0.41679293,233.1840,01/23.0/2023,2000,g 11.5,4.0
# From MPEC 2022-QD9
189P/NEAT,e,20.0684,281.7070,16.3372,2.946049,0.1949145,0.58878764,28.6821,01/23.0/2023,2000,g 19.0,4.0
# From MPEC 2020-K19
190P/Mueller,e,2.1740,335.5375,50.3999,4.230456,0.1132722,0.52220208,280.5955,01/23.0/2023,2000,g 13.0,4.0
# From MPEC 2022-X67
191P/McNaught,e,8.8400,98.2206,284.1288,3.637565,0.1420653,0.38600096,95.6897,01/23.0/2023,2000,g 13.0,4.0
# From MPC 75724
192P/Shoemaker-Levy,e,24.5863,51.6106,313.0545,6.467582,0.0599227,0.77345594,330.7977,01/23.0/2023,2000,g 15.0,4.0
# From MPEC 2022-Y15
193P/LINEAR-NEAT,e,10.6880,335.1763,8.1014,3.576729,0.1457052,0.39366332,75.1586,01/23.0/2023,2000,g 14.0,4.0
# From MPC 98566
194P/LINEAR,e,11.8303,349.6005,128.4738,4.129020,0.1174718,0.56458857,315.7287,01/23.0/2023,2000,g 16.0,4.0
# From MPEC 2023-A50
195P/Hill,e,36.3432,243.1159,249.2846,6.507681,0.0593697,0.31458122,305.6505,01/23.0/2023,2000,g  8.5,4.0
# From MPEC 2022-YN2
196P/Tichy,e,19.3017,24.1120,12.0415,3.804110,0.1328387,0.42816464,11.3829,01/23.0/2023,2000,g 13.5,4.0
# From MPC 94676
197P/LINEAR,e,25.5282,66.3622,188.7515,2.867789,0.2029473,0.62933930,9.3909,01/23.0/2023,2000,g 16.5,2.0
# From NK 1596
198P/ODAS,e,1.3385,358.2210,69.2088,3.596306,0.1445171,0.44430556,216.8034,01/23.0/2023,2000,g  9.0,4.0
# From MPEC 2022-N37
199P/Shoemaker,e,24.9355,92.3494,191.7713,5.884114,0.0690530,0.50539491,346.4263,01/23.0/2023,2000,g 10.0,4.0
# From MPEC 2022-C56
200P/Larsen,e,12.0981,234.7411,134.3116,4.946285,0.0895953,0.33261463,114.0425,01/23.0/2023,2000,g  9.0,4.0
# From MPC 93588
201P/LONEOS,e,5.7397,19.7453,41.5421,3.354654,0.1604104,0.63734927,97.2360,01/23.0/2023,2000,g 14.0,4.0
# From MPEC 2022-X67
202P/Scotti,e,2.1384,177.3152,274.8746,4.117941,0.1179462,0.25684922,303.2582,01/23.0/2023,2000,g 13.5,4.0
# From MPEC 2021-S45
203P/Korlevic,e,2.9729,290.2902,154.7776,4.669367,0.0976826,0.31572943,102.9658,01/23.0/2023,2000,g 14.5,2.0
# From MPEC 2023-B57
204P/LINEAR-NEAT,e,6.5961,108.4978,356.6409,3.581525,0.1454126,0.48786948,9.7660,01/23.0/2023,2000,g 14.0,4.0
# From MPEC 2023-A50
205P/Giacobini,e,15.3062,179.6024,154.1734,3.542043,0.1478507,0.56798706,55.3479,01/23.0/2023,2000,g 13.0,4.0
# From MPC 75725
206P/Barnard-Boattini,e,33.6405,202.3308,189.5326,3.489975,0.1511717,0.55153745,104.2058,01/23.0/2023,2000,g 19.0,4.0
# From MPC 75725
207P/NEAT,e,10.2008,198.1641,273.0356,3.879364,0.1289921,0.75843496,311.7826,01/23.0/2023,2000,g 16.0,4.0
# From MPEC 2022-K19
208P/McMillan,e,4.4126,36.3400,310.5937,4.041781,0.1212956,0.37414876,289.8169,01/23.0/2023,2000,g 12.5,4.0
# From MPC 90771
209P/LINEAR,e,21.2675,62.7658,152.4412,2.959815,0.1935563,0.67342175,255.7239,01/23.0/2023,2000,g 17.0,2.0
# From MPC105242
210P/Christensen,e,10.2745,93.8047,345.9009,3.163010,0.1752077,0.83365478,178.6959,01/23.0/2023,2000,g 13.5,4.0
# From MPEC 2023-B57
211P/Hill,e,18.9196,117.1308,4.2793,3.547605,0.1475031,0.34389338,16.2842,01/23.0/2023,2000,g 12.5,4.0
# From MPEC 2021-F20
212P/NEAT,e,22.1487,98.0652,14.0421,3.899173,0.1280104,0.58703621,301.3531,01/23.0/2023,2000,g 17.0,2.0
# From MPEC 2022-GA9
213P/Van Ness,e,10.3806,311.2808,5.7545,3.346107,0.1610254,0.40813339,312.8673,01/23.0/2023,2000,g 10.5,4.0
# From MPC 92986
214P/LINEAR,e,15.1830,348.2482,190.1761,3.619823,0.1431110,0.48590425,17.0010,01/23.0/2023,2000,g 13.0,4.0
# From MPEC 2023-B57
215P/NEAT,e,10.5773,56.6792,262.4004,4.331079,0.1093478,0.16616009,126.9097,01/23.0/2023,2000,g 11.0,4.0
# From MPC100284
216P/LINEAR,e,9.0638,359.8047,151.6644,3.858810,0.1300241,0.44855530,314.6549,01/23.0/2023,2000,g 13.0,4.0
# From MPEC 2021-N06
217P/LINEAR,e,12.8621,125.4283,246.9361,3.948511,0.1256186,0.68929848,252.8830,01/23.0/2023,2000,g 12.0,4.0
# From MPEC 2022-K19
218P/LINEAR,e,2.7305,176.0088,59.5609,3.088254,0.1816078,0.62313895,152.7497,01/23.0/2023,2000,g 16.0,4.0
# From MPC100284
219P/LINEAR,e,11.5392,230.9518,107.5781,3.646587,0.1415384,0.35411729,305.2704,01/23.0/2023,2000,g 11.0,4.0
# From MPEC 2021-BE3
220P/McNaught,e,8.1278,150.1050,180.6035,3.117652,0.1790452,0.50136459,138.4800,01/23.0/2023,2000,g 15.0,4.0
# From MPEC 2022-UY9
221P/LINEAR,e,11.4494,229.6100,40.1642,3.458687,0.1532277,0.49382056,61.3990,01/23.0/2023,2000,g 14.5,4.0
# From MPC 92277
222P/LINEAR,e,5.0982,6.7757,346.2784,2.898650,0.1997148,0.71479274,264.9691,01/23.0/2023,2000,g 20.0,4.0
# From MPEC 2023-A50
223P/Skiff,e,27.0234,346.7670,37.8588,4.158593,0.1162210,0.41653306,169.1191,01/23.0/2023,2000,g 12.0,4.0
# From MPEC 2022-YN2
224P/LINEAR-NEAT,e,13.3058,40.0384,16.6764,3.443458,0.1542453,0.40582252,17.7420,01/23.0/2023,2000,g 15.5,4.0
# From MPC 75727
225P/LINEAR,e,21.3668,14.2049,3.9150,3.647977,0.1414575,0.63847235,332.1237,01/23.0/2023,2000,g 18.0,4.0
# From MPC106349
226P/Pigott-LINEAR-Kowalski,e,44.0444,54.0127,341.0728,3.766078,0.1348559,0.52896827,314.3834,01/23.0/2023,2000,g 12.5,4.0
# From MPC102956
227P/Catalina-LINEAR,e,7.5050,36.8199,105.3757,3.446389,0.1540486,0.52859056,296.8898,01/23.0/2023,2000,g 16.5,2.0
# From MPEC 2022-HC2
228P/LINEAR,e,7.9132,30.9871,114.8594,4.166807,0.1158775,0.17632107,121.7776,01/23.0/2023,2000,g 14.1,4.0
# From MPC106349
229P/Gibbs,e,26.0918,157.9034,224.0645,3.926360,0.1266832,0.37792806,262.1447,01/23.0/2023,2000,g 13.0,4.0
# From MPEC 2023-A50
230P/LINEAR,e,15.4686,106.9787,313.4560,3.452569,0.1536351,0.54558288,47.5690,01/23.0/2023,2000,g 13.0,4.0
# From MPEC 2022-K19
231P/LINEAR-NEAT,e,12.2956,132.9711,44.2003,4.047244,0.1210501,0.24284128,159.6027,01/23.0/2023,2000,g 14.5,2.0
# From MPC112394
232P/Hill,e,14.6428,56.0243,53.2357,4.475126,0.1041109,0.33479166,144.5295,01/23.0/2023,2000,g 11.5,4.0
# From MPEC 2021-N06
233P/La Sagra,e,11.2887,74.9165,26.9631,3.028471,0.1870118,0.41221413,157.7077,01/23.0/2023,2000,g 15.0,4.0
# From MPEC 2022-K19
234P/LINEAR,e,11.5357,179.5723,357.3088,3.796608,0.1332326,0.25639925,274.8133,01/23.0/2023,2000,g 12.0,4.0
# From MPC110497
235P/LINEAR,e,9.6902,202.1395,334.7488,3.872389,0.1293408,0.35530963,222.9569,01/23.0/2023,2000,g 12.0,4.0
# From MPC107688
236P/LINEAR,e,16.3500,245.5741,119.3395,3.728028,0.1369258,0.50941072,258.3214,01/23.0/2023,2000,g 14.0,4.0
# From MPEC 2023-B57
237P/LINEAR,e,14.0162,245.3593,25.2609,3.511171,0.1498049,0.43408027,343.2692,01/23.0/2023,2000,g 14.5,2.0
# From MPEC 2022-YN2
238P/Read,e,1.2640,51.6254,324.1910,3.165363,0.1750124,0.25147505,40.5392,01/23.0/2023,2000,g 14.5,4.0
# From MPEC 2021-F20
239P/LINEAR,e,11.3035,255.9295,220.3671,4.467498,0.1043777,0.63039002,153.9349,01/23.0/2023,2000,g 17.5,2.0
# From MPEC 2021-F20
240P/NEAT,e,23.5298,74.9088,351.9532,3.864127,0.1297559,0.44985536,222.1881,01/23.0/2023,2000,g 12.1,4.0
# From MPEC 2022-J42
241P/LINEAR,e,21.1009,305.4718,111.4671,4.921561,0.0902713,0.61036577,49.2918,01/23.0/2023,2000,g 13.5,4.0
# From MPEC 2021-S45
242P/Spahr,e,32.5093,180.3758,245.3201,5.505545,0.0762963,0.27930401,306.2818,01/23.0/2023,2000,g  8.0,4.0
# From MPEC 2022-K19
243P/NEAT,e,7.6416,87.5963,283.6450,3.829733,0.1315077,0.36063546,211.5561,01/23.0/2023,2000,g 12.5,4.0
# From MPEC 2023-B57
244P/Scotti,e,2.2593,353.9937,93.1251,4.896597,0.0909625,0.19936000,6.0590,01/23.0/2023,2000,g  9.0,4.0
# From MPEC 2022-CN4
245P/WISE,e,21.1885,316.6665,316.8542,4.047557,0.1210360,0.45612061,219.2014,01/23.0/2023,2000,g 14.0,4.0
# From MPEC 2023-A50
